[{"OBJECT_NAME":"ONEWEB-0509","OBJECT_ID":"2022-138Q","EPOCH":"2025-10-11T04:26:57.777216","MEAN_MOTION":13.19728703,"ECCENTRICITY":0.00018291,"INCLINATION":87.9285,"RA_OF_ASC_NODE":354.4753,"ARG_OF_PERICENTER":103.4139,"MEAN_ANOMALY":256.7198,"EPHEMERIS_TYPE":0,"CLASSIFICATION_TYPE":"U","NORAD_CAT_ID":54127,"ELEMENT_SET_NO":999,"REV_AT_EPOCH":14396,"BSTAR":-9.5124815e-5,"MEAN_MOTION_DOT":-2.5e-7,"MEAN_MOTION_DDOT":0},{"OBJECT_NAME":"ONEWEB-0510","OBJECT_ID":"2022-138R","EPOCH":"2025-10-11T04:40:20.086752","MEAN_MOTION":13.20773364,"ECCENTRICITY":0.00022684,"INCLINATION":87.9224,"RA_OF_ASC_NODE":324.0937,"ARG_OF_PERICENTER":85.0486,"MEAN_ANOMALY":275.0906,"EPHEMERIS_TYPE":0,"CLASSIFICATION_TYPE":"U","NORAD_CAT_ID":54128,"ELEMENT_SET_NO":999,"REV_AT_EPOCH":14641,"BSTAR":3.4024211e-5,"MEAN_MOTION_DOT":2.7e-7,"MEAN_MOTION_DDOT":0},{"OBJECT_NAME":"ONEWEB-0511","OBJECT_ID":"2022-138S","EPOCH":"2025-10-11T06:11:36.032352","MEAN_MOTION":13.19723578,"ECCENTRICITY":0.00016372,"INCLINATION":87.9283,"RA_OF_ASC_NODE":354.4651,"ARG_OF_PERICENTER":92.8912,"MEAN_ANOMALY":267.2409,"EPHEMERIS_TYPE":0,"CLASSIFICATION_TYPE":"U","NORAD_CAT_ID":54129,"ELEMENT_SET_NO":999,"REV_AT_EPOCH":14400,"BSTAR":-0.00019306895,"MEAN_MOTION_DOT":-6.4e-7,"MEAN_MOTION_DDOT":0},{"OBJECT_NAME":"ONEWEB-0512","OBJECT_ID":"2022-138T","EPOCH":"2025-10-11T06:00:13.234752","MEAN_MOTION":13.19723765,"ECCENTRICITY":0.00015879,"INCLINATION":87.9261,"RA_OF_ASC_NODE":354.5014,"ARG_OF_PERICENTER":108.2366,"MEAN_ANOMALY":251.8939,"EPHEMERIS_TYPE":0,"CLASSIFICATION_TYPE":"U","NORAD_CAT_ID":54130,"ELEMENT_SET_NO":999,"REV_AT_EPOCH":14397,"BSTAR":0.00013485052,"MEAN_MOTION_DOT":6.7e-7,"MEAN_MOTION_DDOT":0},{"OBJECT_NAME":"ONEWEB-0513","OBJECT_ID":"2022-138U","EPOCH":"2025-10-11T04:59:23.703072","MEAN_MOTION":13.20317005,"ECCENTRICITY":0.00012669,"INCLINATION":87.9284,"RA_OF_ASC_NODE":354.4702,"ARG_OF_PERICENTER":101.2902,"MEAN_ANOMALY":258.8374,"EPHEMERIS_TYPE":0,"CLASSIFICATION_TYPE":"U","NORAD_CAT_ID":54131,"ELEMENT_SET_NO":999,"REV_AT_EPOCH":14386,"BSTAR":7.9201337e-5,"MEAN_MOTION_DOT":4.5e-7,"MEAN_MOTION_DDOT":0},{"OBJECT_NAME":"ONEWEB-0514","OBJECT_ID":"2022-138V","EPOCH":"2025-10-11T04:33:47.956032","MEAN_MOTION":13.19727532,"ECCENTRICITY":0.00019131,"INCLINATION":87.9277,"RA_OF_ASC_NODE":354.4919,"ARG_OF_PERICENTER":96.1251,"MEAN_ANOMALY":264.01,"EPHEMERIS_TYPE":0,"CLASSIFICATION_TYPE":"U","NORAD_CAT_ID":54132,"ELEMENT_SET_NO":999,"REV_AT_EPOCH":14398,"BSTAR":-8.9508466e-5,"MEAN_MOTION_DOT":-2.3e-7,"MEAN_MOTION_DDOT":0},{"OBJECT_NAME":"ONEWEB-0515","OBJECT_ID":"2022-138W","EPOCH":"2025-10-11T02:33:03.108672","MEAN_MOTION":13.20769383,"ECCENTRICITY":0.00028357,"INCLINATION":87.9236,"RA_OF_ASC_NODE":324.0926,"ARG_OF_PERICENTER":95.2322,"MEAN_ANOMALY":264.9135,"EPHEMERIS_TYPE":0,"CLASSIFICATION_TYPE":"U","NORAD_CAT_ID":54133,"ELEMENT_SET_NO":999,"REV_AT_EPOCH":14642,"BSTAR":0.00010402799,"MEAN_MOTION_DOT":5.5e-7,"MEAN_MOTION_DDOT":0},{"OBJECT_NAME":"ONEWEB-0516","OBJECT_ID":"2022-138X","EPOCH":"2025-10-11T05:46:35.142528","MEAN_MOTION":13.19727314,"ECCENTRICITY":0.00018673,"INCLINATION":87.9263,"RA_OF_ASC_NODE":354.5084,"ARG_OF_PERICENTER":104.8572,"MEAN_ANOMALY":255.2768,"EPHEMERIS_TYPE":0,"CLASSIFICATION_TYPE":"U","NORAD_CAT_ID":54134,"ELEMENT_SET_NO":999,"REV_AT_EPOCH":14399,"BSTAR":1.0643319e-5,"MEAN_MOTION_DOT":1.7e-7,"MEAN_MOTION_DDOT":0},{"OBJECT_NAME":"ONEWEB-0517","OBJECT_ID":"2022-138Y","EPOCH":"2025-10-11T05:17:00.197088","MEAN_MOTION":13.19728369,"ECCENTRICITY":0.00016752,"INCLINATION":87.9282,"RA_OF_ASC_NODE":354.4815,"ARG_OF_PERICENTER":92.0199,"MEAN_ANOMALY":268.1126,"EPHEMERIS_TYPE":0,"CLASSIFICATION_TYPE":"U","NORAD_CAT_ID":54135,"ELEMENT_SET_NO":999,"REV_AT_EPOCH":14399,"BSTAR":0.00042908527,"MEAN_MOTION_DOT":1.85e-6,"MEAN_MOTION_DDOT":0},{"OBJECT_NAME":"ONEWEB-0518","OBJECT_ID":"2022-138Z","EPOCH":"2025-10-11T05:44:17.553984","MEAN_MOTION":13.19724826,"ECCENTRICITY":0.0001757,"INCLINATION":87.9263,"RA_OF_ASC_NODE":354.5102,"ARG_OF_PERICENTER":104.7112,"MEAN_ANOMALY":255.4215,"EPHEMERIS_TYPE":0,"CLASSIFICATION_TYPE":"U","NORAD_CAT_ID":54136,"ELEMENT_SET_NO":999,"REV_AT_EPOCH":14399,"BSTAR":-0.00056480314,"MEAN_MOTION_DOT":-2.13e-6,"MEAN_MOTION_DDOT":0},{"OBJECT_NAME":"ONEWEB-0519","OBJECT_ID":"2022-138AA","EPOCH":"2025-10-11T06:20:41.176608","MEAN_MOTION":13.19728211,"ECCENTRICITY":0.0001656,"INCLINATION":87.9279,"RA_OF_ASC_NODE":354.4642,"ARG_OF_PERICENTER":94.908,"MEAN_ANOMALY":265.2242,"EPHEMERIS_TYPE":0,"CLASSIFICATION_TYPE":"U","NORAD_CAT_ID":54137,"ELEMENT_SET_NO":999,"REV_AT_EPOCH":14400,"BSTAR":6.8056195e-5,"MEAN_MOTION_DOT":4.0e-7,"MEAN_MOTION_DDOT":0},{"OBJECT_NAME":"ONEWEB-0520","OBJECT_ID":"2022-138AB","EPOCH":"2025-10-11T05:21:32.973984","MEAN_MOTION":13.19723926,"ECCENTRICITY":0.00017666,"INCLINATION":87.928,"RA_OF_ASC_NODE":354.4762,"ARG_OF_PERICENTER":109.2618,"MEAN_ANOMALY":250.8706,"EPHEMERIS_TYPE":0,"CLASSIFICATION_TYPE":"U","NORAD_CAT_ID":54138,"ELEMENT_SET_NO":999,"REV_AT_EPOCH":14398,"BSTAR":0.00021563976,"MEAN_MOTION_DOT":9.9e-7,"MEAN_MOTION_DDOT":0},{"OBJECT_NAME":"ONEWEB-0521","OBJECT_ID":"2022-138AC","EPOCH":"2025-10-11T06:09:20.286720","MEAN_MOTION":13.19726644,"ECCENTRICITY":0.00018071,"INCLINATION":87.9278,"RA_OF_ASC_NODE":354.4554,"ARG_OF_PERICENTER":92.6792,"MEAN_ANOMALY":267.4548,"EPHEMERIS_TYPE":0,"CLASSIFICATION_TYPE":"U","NORAD_CAT_ID":54139,"ELEMENT_SET_NO":999,"REV_AT_EPOCH":14393,"BSTAR":9.0484791e-5,"MEAN_MOTION_DOT":4.9e-7,"MEAN_MOTION_DDOT":0},{"OBJECT_NAME":"ONEWEB-0522","OBJECT_ID":"2022-138AD","EPOCH":"2025-10-11T05:39:46.702080","MEAN_MOTION":13.19725528,"ECCENTRICITY":0.00017967,"INCLINATION":87.9276,"RA_OF_ASC_NODE":354.4604,"ARG_OF_PERICENTER":104.2976,"MEAN_ANOMALY":255.8357,"EPHEMERIS_TYPE":0,"CLASSIFICATION_TYPE":"U","NORAD_CAT_ID":54140,"ELEMENT_SET_NO":999,"REV_AT_EPOCH":14397,"BSTAR":0.00013479283,"MEAN_MOTION_DOT":6.7e-7,"MEAN_MOTION_DDOT":0},{"OBJECT_NAME":"ONEWEB-0523","OBJECT_ID":"2022-138AE","EPOCH":"2025-10-11T04:03:57.701376","MEAN_MOTION":13.20773668,"ECCENTRICITY":0.00025875,"INCLINATION":87.9222,"RA_OF_ASC_NODE":324.1036,"ARG_OF_PERICENTER":82.4769,"MEAN_ANOMALY":277.6659,"EPHEMERIS_TYPE":0,"CLASSIFICATION_TYPE":"U","NORAD_CAT_ID":54141,"ELEMENT_SET_NO":999,"REV_AT_EPOCH":14643,"BSTAR":4.0224578e-5,"MEAN_MOTION_DOT":2.9e-7,"MEAN_MOTION_DDOT":0},{"OBJECT_NAME":"ONEWEB-0524","OBJECT_ID":"2022-138AF","EPOCH":"2025-10-11T03:48:04.738752","MEAN_MOTION":13.20771881,"ECCENTRICITY":0.00028366,"INCLINATION":87.9222,"RA_OF_ASC_NODE":324.107,"ARG_OF_PERICENTER":100.9077,"MEAN_ANOMALY":259.2376,"EPHEMERIS_TYPE":0,"CLASSIFICATION_TYPE":"U","NORAD_CAT_ID":54142,"ELEMENT_SET_NO":999,"REV_AT_EPOCH":14643,"BSTAR":2.2277975e-5,"MEAN_MOTION_DOT":2.2e-7,"MEAN_MOTION_DDOT":0},{"OBJECT_NAME":"ONEWEB-0525","OBJECT_ID":"2022-138AG","EPOCH":"2025-10-11T06:07:03.299520","MEAN_MOTION":13.19726434,"ECCENTRICITY":0.00017823,"INCLINATION":87.9281,"RA_OF_ASC_NODE":354.4788,"ARG_OF_PERICENTER":109.3361,"MEAN_ANOMALY":250.7965,"EPHEMERIS_TYPE":0,"CLASSIFICATION_TYPE":"U","NORAD_CAT_ID":54143,"ELEMENT_SET_NO":999,"REV_AT_EPOCH":14399,"BSTAR":-1.8235273e-5,"MEAN_MOTION_DOT":6.0e-8,"MEAN_MOTION_DDOT":0},{"OBJECT_NAME":"ONEWEB-0526","OBJECT_ID":"2022-138AH","EPOCH":"2025-10-11T05:05:37.864320","MEAN_MOTION":13.19723984,"ECCENTRICITY":0.00018347,"INCLINATION":87.9278,"RA_OF_ASC_NODE":354.4738,"ARG_OF_PERICENTER":103.1064,"MEAN_ANOMALY":257.0274,"EPHEMERIS_TYPE":0,"CLASSIFICATION_TYPE":"U","NORAD_CAT_ID":54144,"ELEMENT_SET_NO":999,"REV_AT_EPOCH":14396,"BSTAR":-0.00031842219,"MEAN_MOTION_DOT":-1.15e-6,"MEAN_MOTION_DDOT":0},{"OBJECT_NAME":"ONEWEB-0529","OBJECT_ID":"2022-138AJ","EPOCH":"2025-10-11T05:10:11.367840","MEAN_MOTION":13.19727176,"ECCENTRICITY":0.00017829,"INCLINATION":87.9264,"RA_OF_ASC_NODE":354.51,"ARG_OF_PERICENTER":107.9776,"MEAN_ANOMALY":252.1551,"EPHEMERIS_TYPE":0,"CLASSIFICATION_TYPE":"U","NORAD_CAT_ID":54145,"ELEMENT_SET_NO":999,"REV_AT_EPOCH":14398,"BSTAR":0.00027071351,"MEAN_MOTION_DOT":1.21e-6,"MEAN_MOTION_DDOT":0},{"OBJECT_NAME":"ONEWEB-0531","OBJECT_ID":"2022-138AK","EPOCH":"2025-10-11T03:27:36.787392","MEAN_MOTION":13.2077086,"ECCENTRICITY":0.00027858,"INCLINATION":87.9221,"RA_OF_ASC_NODE":324.1006,"ARG_OF_PERICENTER":87.6697,"MEAN_ANOMALY":272.4756,"EPHEMERIS_TYPE":0,"CLASSIFICATION_TYPE":"U","NORAD_CAT_ID":54146,"ELEMENT_SET_NO":999,"REV_AT_EPOCH":14643,"BSTAR":-2.1328544e-5,"MEAN_MOTION_DOT":4.0e-8,"MEAN_MOTION_DDOT":0},{"OBJECT_NAME":"ONEWEB-0535","OBJECT_ID":"2022-138AL","EPOCH":"2025-10-11T05:57:57.170304","MEAN_MOTION":13.19723694,"ECCENTRICITY":0.0002079,"INCLINATION":87.9278,"RA_OF_ASC_NODE":354.462,"ARG_OF_PERICENTER":90.3456,"MEAN_ANOMALY":269.7915,"EPHEMERIS_TYPE":0,"CLASSIFICATION_TYPE":"U","NORAD_CAT_ID":54147,"ELEMENT_SET_NO":999,"REV_AT_EPOCH":14400,"BSTAR":-2.6569981e-5,"MEAN_MOTION_DOT":2.0e-8,"MEAN_MOTION_DDOT":0},{"OBJECT_NAME":"ONEWEB-0536","OBJECT_ID":"2022-138AM","EPOCH":"2025-10-11T03:09:24.740640","MEAN_MOTION":13.20773162,"ECCENTRICITY":0.0002924,"INCLINATION":87.9223,"RA_OF_ASC_NODE":324.1503,"ARG_OF_PERICENTER":90.4529,"MEAN_ANOMALY":269.694,"EPHEMERIS_TYPE":0,"CLASSIFICATION_TYPE":"U","NORAD_CAT_ID":54148,"ELEMENT_SET_NO":999,"REV_AT_EPOCH":14642,"BSTAR":0.00018508762,"MEAN_MOTION_DOT":8.8e-7,"MEAN_MOTION_DDOT":0},{"OBJECT_NAME":"ONEWEB-0527","OBJECT_ID":"2022-166A","EPOCH":"2025-10-11T06:45:17.773344","MEAN_MOTION":13.21886543,"ECCENTRICITY":0.00019051,"INCLINATION":87.9165,"RA_OF_ASC_NODE":293.6673,"ARG_OF_PERICENTER":93.3266,"MEAN_ANOMALY":266.8086,"EPHEMERIS_TYPE":0,"CLASSIFICATION_TYPE":"U","NORAD_CAT_ID":54642,"ELEMENT_SET_NO":999,"REV_AT_EPOCH":13865,"BSTAR":8.275678e-5,"MEAN_MOTION_DOT":4.7e-7,"MEAN_MOTION_DDOT":0}]
